{"type": "FeatureCollection", "features": [ {"type": "Feature", "properties": {"norad_id": 66838, "name": "STARLINK-35886", "group": "last-30-days", "lat": -1.5398541884645538, "lon": 175.77577929863946, "alt_km": 411.7534021935853, "timestamp": "2025-12-20T18:51:30.447496+00:00", "meta": {"OBJECT_NAME": "STARLINK-35886", "OBJECT_ID": "2025-280T", "EPOCH": "2025-12-20T14:00:03.000384", "MEAN_MOTION": 15.52492375, "ECCENTRICITY": 0.00025184, "INCLINATION": 70.0002, "RA_OF_ASC_NODE": 176.8909, "ARG_OF_PERICENTER": 280.4917, "MEAN_ANOMALY": 27.0799, "EPHEMERIS_TYPE": 0, "CLASSIFICATION_TYPE": "U", "NORAD_CAT_ID": 66838, "ELEMENT_SET_NO": 999, "REV_AT_EPOCH": 415, "BSTAR": 0.00047058046, "MEAN_MOTION_DOT": 0.00028858, "MEAN_MOTION_DDOT": 0}, "tle": {"line1": "1 66838U 25280T   25354.58336806  .00028858  00000+0  47058-3 0  9993", "line2": "2 66838  70.0002 176.8909 0002518 280.4917  27.0799 15.52492375  4156"}}, "geometry": {"type": "Point", "coordinates": [175.77577929863946, -1.5398541884645538]}}, {"type": "Feature", "properties": {"norad_id": 66839, "name": "STARLINK-35717", "group": "last-30-days", "lat": -3.394119496750418, "lon": 175.1008992155856, "alt_km": 412.38423344064086, "timestamp": "2025-12-20T18:51:30.447506+00:00", "meta": {"OBJECT_NAME": "STARLINK-35717", "OBJECT_ID": "2025-280U", "EPOCH": "2025-12-20T14:00:03.000384", "MEAN_MOTION": 15.52511584, "ECCENTRICITY": 0.00031928, "INCLINATION": 70.0003, "RA_OF_ASC_NODE": 176.8928, "ARG_OF_PERICENTER": 264.1613, "MEAN_ANOMALY": 41.4155, "EPHEMERIS_TYPE": 0, "CLASSIFICATION_TYPE": "U", "NORAD_CAT_ID": 66839, "ELEMENT_SET_NO": 999, "REV_AT_EPOCH": 415, "BSTAR": 0.00036935197, "MEAN_MOTION_DOT": 0.00022614, "MEAN_MOTION_DDOT": 0}, "tle": {"line1": "1 66839U 25280U   25354.58336806  .00022614  00000+0  36935-3 0  9990", "line2": "2 66839  70.0003 176.8928 0003192 264.1613  41.4155 15.52511584  4150"}}, "geometry": {"type": "Point", "coordinates": [175.1008992155856, -3.394119496750418]}}, {"type": "Feature", "properties": {"norad_id": 66840, "name": "STARLINK-35837", "group": "last-30-days", "lat": 0.20932543511123333, "lon": 176.41080586153274, "alt_km": 411.994153033399, "timestamp": "2025-12-20T18:51:30.447515+00:00", "meta": {"OBJECT_NAME": "STARLINK-35837", "OBJECT_ID": "2025-280V", "EPOCH": "2025-12-20T14:00:03.000384", "MEAN_MOTION": 15.52511577, "ECCENTRICITY": 0.00030419, "INCLINATION": 70.0001, "RA_OF_ASC_NODE": 176.8887, "ARG_OF_PERICENTER": 266.0103, "MEAN_ANOMALY": 43.4033, "EPHEMERIS_TYPE": 0, "CLASSIFICATION_TYPE": "U", "NORAD_CAT_ID": 66840, "ELEMENT_SET_NO": 999, "REV_AT_EPOCH": 415, "BSTAR": 0.00033881807, "MEAN_MOTION_DOT": 0.00020725, "MEAN_MOTION_DDOT": 0}, "tle": {"line1": "1 66840U 25280V   25354.58336806  .00020725  00000+0  33882-3 0  9991", "line2": "2 66840  70.0001 176.8887 0003041 266.0103  43.4033 15.52511577  4151"}}, "geometry": {"type": "Point", "coordinates": [176.41080586153274, 0.20932543511123333]}}, {"type": "Feature", "properties": {"norad_id": 66841, "name": "STARLINK-35715", "group": "last-30-days", "lat": 2.0085471795549674, "lon": 177.0642515137727, "alt_km": 411.85011068098083, "timestamp": "2025-12-20T18:51:30.447525+00:00", "meta": {"OBJECT_NAME": "STARLINK-35715", "OBJECT_ID": "2025-280W", "EPOCH": "2025-12-20T14:00:03.000384", "MEAN_MOTION": 15.52513799, "ECCENTRICITY": 0.00030929, "INCLINATION": 70.0002, "RA_OF_ASC_NODE": 176.8865, "ARG_OF_PERICENTER": 265.2455, "MEAN_ANOMALY": 46.0806, "EPHEMERIS_TYPE": 0, "CLASSIFICATION_TYPE": "U", "NORAD_CAT_ID": 66841, "ELEMENT_SET_NO": 999, "REV_AT_EPOCH": 415, "BSTAR": 0.000327274, "MEAN_MOTION_DOT": 0.00020013, "MEAN_MOTION_DDOT": 0}, "tle": {"line1": "1 66841U 25280W   25354.58336806  .00020013  00000+0  32727-3 0  9999", "line2": "2 66841  70.0002 176.8865 0003092 265.2455  46.0806 15.52513799  4151"}}, "geometry": {"type": "Point", "coordinates": [177.0642515137727, 2.0085471795549674]}}, {"type": "Feature", "properties": {"norad_id": 66842, "name": "STARLINK-35769", "group": "last-30-days", "lat": 3.8145781206359195, "lon": 177.72153897536887, "alt_km": 411.69884283427564, "timestamp": "2025-12-20T18:51:30.447535+00:00", "meta": {"OBJECT_NAME": "STARLINK-35769", "OBJECT_ID": "2025-280X", "EPOCH": "2025-12-20T14:00:03.000384", "MEAN_MOTION": 15.52509619, "ECCENTRICITY": 0.00030328, "INCLINATION": 70.0001, "RA_OF_ASC_NODE": 176.8841, "ARG_OF_PERICENTER": 264.6443, "MEAN_ANOMALY": 48.6073, "EPHEMERIS_TYPE": 0, "CLASSIFICATION_TYPE": "U", "NORAD_CAT_ID": 66842, "ELEMENT_SET_NO": 999, "REV_AT_EPOCH": 415, "BSTAR": 0.00035661449, "MEAN_MOTION_DOT": 0.00021824, "MEAN_MOTION_DDOT": 0}, "tle": {"line1": "1 66842U 25280X   25354.58336806  .00021824  00000+0  35661-3 0  9991", "line2": "2 66842  70.0001 176.8841 0003032 264.6443  48.6073 15.52509619  4159"}}, "geometry": {"type": "Point", "coordinates": [177.72153897536887, 3.8145781206359195]}}, {"type": "Feature", "properties": {"norad_id": 66843, "name": "STARLINK-35997", "group": "last-30-days", "lat": 7.408743064536434, "lon": 179.03888769630507, "alt_km": 411.25395226069213, "timestamp": "2025-12-20T18:51:30.447548+00:00", "meta": {"OBJECT_NAME": "STARLINK-35997", "OBJECT_ID": "2025-280Y", "EPOCH": "2025-12-20T14:00:03.000384", "MEAN_MOTION": 15.5251302, "ECCENTRICITY": 0.00030864, "INCLINATION": 70.0002, "RA_OF_ASC_NODE": 176.8784, "ARG_OF_PERICENTER": 266.6593, "MEAN_ANOMALY": 50.4155, "EPHEMERIS_TYPE": 0, "CLASSIFICATION_TYPE": "U", "NORAD_CAT_ID": 66843, "ELEMENT_SET_NO": 999, "REV_AT_EPOCH": 415, "BSTAR": 0.00035527419, "MEAN_MOTION_DOT": 0.00021744, "MEAN_MOTION_DDOT": 0}, "tle": {"line1": "1 66843U 25280Y   25354.58336806  .00021744  00000+0  35527-3 0  9994", "line2": "2 66843  70.0002 176.8784 0003086 266.6593  50.4155 15.52513020  4157"}}, "geometry": {"type": "Point", "coordinates": [179.03888769630507, 7.408743064536434]}}, {"type": "Feature", "properties": {"norad_id": 66844, "name": "STARLINK-36073", "group": "last-30-days", "lat": 5.536976117612257, "lon": 178.35148559255464, "alt_km": 411.4956165178901, "timestamp": "2025-12-20T18:51:30.447559+00:00", "meta": {"OBJECT_NAME": "STARLINK-36073", "OBJECT_ID": "2025-280Z", "EPOCH": "2025-12-20T14:00:03.000384", "MEAN_MOTION": 15.52537175, "ECCENTRICITY": 0.00031883, "INCLINATION": 70.0002, "RA_OF_ASC_NODE": 176.8822, "ARG_OF_PERICENTER": 264, "MEAN_ANOMALY": 51.0642, "EPHEMERIS_TYPE": 0, "CLASSIFICATION_TYPE": "U", "NORAD_CAT_ID": 66844, "ELEMENT_SET_NO": 999, "REV_AT_EPOCH": 415, "BSTAR": 0.00025495428, "MEAN_MOTION_DOT": 0.00015558, "MEAN_MOTION_DDOT": 0}, "tle": {"line1": "1 66844U 25280Z   25354.58336806  .00015558  00000+0  25495-3 0  9994", "line2": "2 66844  70.0002 176.8822 0003188 264.0000  51.0642 15.52537175  4154"}}, "geometry": {"type": "Point", "coordinates": [178.35148559255464, 5.536976117612257]}}, {"type": "Feature", "properties": {"norad_id": 66845, "name": "STARLINK-36068", "group": "last-30-days", "lat": 12.801087520882167, "lon": -178.93496423849368, "alt_km": 410.6295145031172, "timestamp": "2025-12-20T18:51:30.447568+00:00", "meta": {"OBJECT_NAME": "STARLINK-36068", "OBJECT_ID": "2025-280AA", "EPOCH": "2025-12-20T14:00:03.000384", "MEAN_MOTION": 15.52515329, "ECCENTRICITY": 0.00030216, "INCLINATION": 70.0003, "RA_OF_ASC_NODE": 176.8721, "ARG_OF_PERICENTER": 267.081, "MEAN_ANOMALY": 55.7422, "EPHEMERIS_TYPE": 0, "CLASSIFICATION_TYPE": "U", "NORAD_CAT_ID": 66845, "ELEMENT_SET_NO": 999, "REV_AT_EPOCH": 415, "BSTAR": 0.00029123634, "MEAN_MOTION_DOT": 0.00017787, "MEAN_MOTION_DDOT": 0}, "tle": {"line1": "1 66845U 25280AA  25354.58336806  .00017787  00000+0  29124-3 0  9994", "line2": "2 66845  70.0003 176.8721 0003021 267.0810  55.7422 15.52515329  4156"}}, "geometry": {"type": "Point", "coordinates": [-178.93496423849368, 12.801087520882167]}}, {"type": "Feature", "properties": {"norad_id": 66846, "name": "STARLINK-36055", "group": "last-30-days", "lat": 9.210503564238937, "lon": 179.70846847759117, "alt_km": 411.0541909542708, "timestamp": "2025-12-20T18:51:30.447578+00:00", "meta": {"OBJECT_NAME": "STARLINK-36055", "OBJECT_ID": "2025-280AB", "EPOCH": "2025-12-20T14:00:03.000384", "MEAN_MOTION": 15.52511379, "ECCENTRICITY": 0.00029682, "INCLINATION": 70.0001, "RA_OF_ASC_NODE": 176.8767, "ARG_OF_PERICENTER": 266.4866, "MEAN_ANOMALY": 52.5105, "EPHEMERIS_TYPE": 0, "CLASSIFICATION_TYPE": "U", "NORAD_CAT_ID": 66846, "ELEMENT_SET_NO": 999, "REV_AT_EPOCH": 415, "BSTAR": 0.00033036672, "MEAN_MOTION_DOT": 0.00020202, "MEAN_MOTION_DDOT": 0}, "tle": {"line1": "1 66846U 25280AB  25354.58336806  .00020202  00000+0  33037-3 0  9999", "line2": "2 66846  70.0001 176.8767 0002968 266.4866  52.5105 15.52511379  4152"}}, "geometry": {"type": "Point", "coordinates": [179.70846847759117, 9.210503564238937]}}, {"type": "Feature", "properties": {"norad_id": 66847, "name": "STARLINK-36061", "group": "last-30-days", "lat": 11.012222046560321, "lon": -179.61524022798363, "alt_km": 410.8684116480563, "timestamp": "2025-12-20T18:51:30.447588+00:00", "meta": {"OBJECT_NAME": "STARLINK-36061", "OBJECT_ID": "2025-280AC", "EPOCH": "2025-12-20T14:00:03.000384", "MEAN_MOTION": 15.52506778, "ECCENTRICITY": 0.00030824, "INCLINATION": 70.0002, "RA_OF_ASC_NODE": 176.8744, "ARG_OF_PERICENTER": 266.9165, "MEAN_ANOMALY": 54.0029, "EPHEMERIS_TYPE": 0, "CLASSIFICATION_TYPE": "U", "NORAD_CAT_ID": 66847, "ELEMENT_SET_NO": 999, "REV_AT_EPOCH": 410, "BSTAR": 0.00038124811, "MEAN_MOTION_DOT": 0.00023345, "MEAN_MOTION_DDOT": 0}, "tle": {"line1": "1 66847U 25280AC  25354.58336806  .00023345  00000+0  38125-3 0  9994", "line2": "2 66847  70.0002 176.8744 0003082 266.9165  54.0029 15.52506778  4108"}}, "geometry": {"type": "Point", "coordinates": [-179.61524022798363, 11.012222046560321]}}]}